ONEWEB-0365             
1 49291U 21090N   25316.12322583  .00000090  00000+0  19180-3 0  9990
2 49291  87.9229 348.1395 0001923  96.1937 263.9415 13.19728159197796
ONEWEB-0366             
1 49292U 21090P   25316.04348947  .00000328  00000+0  85062-3 0  9990
2 49292  87.8991 332.9823 0001742  93.0426 267.0903 13.14504931199038
ONEWEB-0367             
1 49293U 21090Q   25316.27136575  .00000184  00000+0  41975-3 0  9993
2 49293  87.9186 317.6959 0002026  88.5593 271.5773 13.20772677201193
ONEWEB-0368             
1 49294U 21090R   25316.24453739  .00000062  00000+0  12118-3 0  9997
2 49294  87.9170 317.7340 0001891 115.4254 244.7075 13.20772463202343
ONEWEB-0369             
1 49295U 21090S   25316.11849193  .00000128  00000+0  28842-3 0  9991
2 49295  87.9223 348.1703 0001917  97.0924 263.0427 13.19727198197781
ONEWEB-0370             
1 49296U 21090T   25316.28083678  .00000068  00000+0  13520-3 0  9998
2 49296  87.9179 317.7010 0001931  80.9009 279.2343 13.20772964201231
ONEWEB-0371             
1 49297U 21090U   25316.12639087  .00000123  00000+0  27422-3 0  9991
2 49297  87.9221 348.1558 0001942  94.4471 265.6884 13.19727668197827
ONEWEB-0372             
1 49298U 21090V   25316.26965863  .00000131  00000+0  29061-3 0  9991
2 49298  87.9176 317.7045 0001922  92.2147 267.9207 13.20772111201201
ONEWEB-0373             
1 49299U 21090W   25316.29662548  .00000061  00000+0  11894-3 0  9996
2 49299  87.9175 317.7121 0001758  88.6753 271.4582 13.20771432202397
ONEWEB-0374             
1 49300U 21090X   25316.10693071  .00000161  00000+0  39886-3 0  9996
2 49300  87.8992 332.9461 0001478 109.2446 250.8844 13.14502736199041
ONEWEB-0375             
1 49301U 21090Y   25316.28399764  .00000126  00000+0  27771-3 0  9999
2 49301  87.9177 317.6947 0001256  91.5199 268.6078 13.20771517201894
ONEWEB-0376             
1 49302U 21090Z   25316.12480980  .00000122  00000+0  27172-3 0  9995
2 49302  87.9230 348.1421 0002044  98.2378 261.8987 13.19725673197821
ONEWEB-0377             
1 49303U 21090AA  25316.26993291  .00000081  00000+0  16815-3 0  9991
2 49303  87.9184 317.6963 0001766  83.7998 276.3337 13.20771294201883
ONEWEB-0378             
1 49304U 21090AB  25316.29202702  .00001103  00000+0  26799-2 0  9992
2 49304  87.9182 317.7067 0001875  94.1924 265.9423 13.20768576201153
ONEWEB-0379             
1 49305U 21090AC  25316.10217487  .00000193  00000+0  48620-3 0  9995
2 49305  87.8992 332.9554 0001751  96.4110 263.7219 13.14503145199042
ONEWEB-0380             
1 49306U 21090AD  25316.12168343 -.00004070  00000+0 -10207-1 0  9992
2 49306  87.9226 348.1660 0001641  87.6799 272.4522 13.19693750197795
