[{"OBJECT_NAME":"ONEWEB-0365","OBJECT_ID":"2021-090N","EPOCH":"2025-11-12T02:57:26.711712","MEAN_MOTION":13.19728159,"ECCENTRICITY":0.0001923,"INCLINATION":87.9229,"RA_OF_ASC_NODE":348.1395,"ARG_OF_PERICENTER":96.1937,"MEAN_ANOMALY":263.9415,"EPHEMERIS_TYPE":0,"CLASSIFICATION_TYPE":"U","NORAD_CAT_ID":49291,"ELEMENT_SET_NO":999,"REV_AT_EPOCH":19779,"BSTAR":0.00019179655,"MEAN_MOTION_DOT":9.0e-7,"MEAN_MOTION_DDOT":0},{"OBJECT_NAME":"ONEWEB-0366","OBJECT_ID":"2021-090P","EPOCH":"2025-11-12T01:02:37.490208","MEAN_MOTION":13.14504931,"ECCENTRICITY":0.00017427,"INCLINATION":87.8991,"RA_OF_ASC_NODE":332.9823,"ARG_OF_PERICENTER":93.0426,"MEAN_ANOMALY":267.0903,"EPHEMERIS_TYPE":0,"CLASSIFICATION_TYPE":"U","NORAD_CAT_ID":49292,"ELEMENT_SET_NO":999,"REV_AT_EPOCH":19903,"BSTAR":0.00085062013,"MEAN_MOTION_DOT":3.28e-6,"MEAN_MOTION_DDOT":0},{"OBJECT_NAME":"ONEWEB-0367","OBJECT_ID":"2021-090Q","EPOCH":"2025-11-12T06:30:46.000800","MEAN_MOTION":13.20772677,"ECCENTRICITY":0.0002026,"INCLINATION":87.9186,"RA_OF_ASC_NODE":317.6959,"ARG_OF_PERICENTER":88.5593,"MEAN_ANOMALY":271.5773,"EPHEMERIS_TYPE":0,"CLASSIFICATION_TYPE":"U","NORAD_CAT_ID":49293,"ELEMENT_SET_NO":999,"REV_AT_EPOCH":20119,"BSTAR":0.00041975422,"MEAN_MOTION_DOT":1.84e-6,"MEAN_MOTION_DDOT":0},{"OBJECT_NAME":"ONEWEB-0368","OBJECT_ID":"2021-090R","EPOCH":"2025-11-12T05:52:08.030496","MEAN_MOTION":13.20772463,"ECCENTRICITY":0.00018911,"INCLINATION":87.917,"RA_OF_ASC_NODE":317.734,"ARG_OF_PERICENTER":115.4254,"MEAN_ANOMALY":244.7075,"EPHEMERIS_TYPE":0,"CLASSIFICATION_TYPE":"U","NORAD_CAT_ID":49294,"ELEMENT_SET_NO":999,"REV_AT_EPOCH":20234,"BSTAR":0.00012118384,"MEAN_MOTION_DOT":6.2e-7,"MEAN_MOTION_DDOT":0},{"OBJECT_NAME":"ONEWEB-0369","OBJECT_ID":"2021-090S","EPOCH":"2025-11-12T02:50:37.702752","MEAN_MOTION":13.19727198,"ECCENTRICITY":0.00019175,"INCLINATION":87.9223,"RA_OF_ASC_NODE":348.1703,"ARG_OF_PERICENTER":97.0924,"MEAN_ANOMALY":263.0427,"EPHEMERIS_TYPE":0,"CLASSIFICATION_TYPE":"U","NORAD_CAT_ID":49295,"ELEMENT_SET_NO":999,"REV_AT_EPOCH":19778,"BSTAR":0.00028842272,"MEAN_MOTION_DOT":1.28e-6,"MEAN_MOTION_DDOT":0},{"OBJECT_NAME":"ONEWEB-0370","OBJECT_ID":"2021-090T","EPOCH":"2025-11-12T06:44:24.297792","MEAN_MOTION":13.20772964,"ECCENTRICITY":0.00019315,"INCLINATION":87.9179,"RA_OF_ASC_NODE":317.701,"ARG_OF_PERICENTER":80.9009,"MEAN_ANOMALY":279.2343,"EPHEMERIS_TYPE":0,"CLASSIFICATION_TYPE":"U","NORAD_CAT_ID":49296,"ELEMENT_SET_NO":999,"REV_AT_EPOCH":20123,"BSTAR":0.00013519931,"MEAN_MOTION_DOT":6.8e-7,"MEAN_MOTION_DDOT":0},{"OBJECT_NAME":"ONEWEB-0371","OBJECT_ID":"2021-090U","EPOCH":"2025-11-12T03:02:00.171168","MEAN_MOTION":13.19727668,"ECCENTRICITY":0.00019428,"INCLINATION":87.9221,"RA_OF_ASC_NODE":348.1558,"ARG_OF_PERICENTER":94.4471,"MEAN_ANOMALY":265.6884,"EPHEMERIS_TYPE":0,"CLASSIFICATION_TYPE":"U","NORAD_CAT_ID":49297,"ELEMENT_SET_NO":999,"REV_AT_EPOCH":19782,"BSTAR":0.0002742239,"MEAN_MOTION_DOT":1.23e-6,"MEAN_MOTION_DDOT":0},{"OBJECT_NAME":"ONEWEB-0372","OBJECT_ID":"2021-090V","EPOCH":"2025-11-12T06:28:18.505632","MEAN_MOTION":13.20772111,"ECCENTRICITY":0.00019226,"INCLINATION":87.9176,"RA_OF_ASC_NODE":317.7045,"ARG_OF_PERICENTER":92.2147,"MEAN_ANOMALY":267.9207,"EPHEMERIS_TYPE":0,"CLASSIFICATION_TYPE":"U","NORAD_CAT_ID":49298,"ELEMENT_SET_NO":999,"REV_AT_EPOCH":20120,"BSTAR":0.00029060814,"MEAN_MOTION_DOT":1.31e-6,"MEAN_MOTION_DDOT":0},{"OBJECT_NAME":"ONEWEB-0373","OBJECT_ID":"2021-090W","EPOCH":"2025-11-12T07:07:08.441472","MEAN_MOTION":13.20771432,"ECCENTRICITY":0.0001758,"INCLINATION":87.9175,"RA_OF_ASC_NODE":317.7121,"ARG_OF_PERICENTER":88.6753,"MEAN_ANOMALY":271.4582,"EPHEMERIS_TYPE":0,"CLASSIFICATION_TYPE":"U","NORAD_CAT_ID":49299,"ELEMENT_SET_NO":999,"REV_AT_EPOCH":20239,"BSTAR":0.00011893552,"MEAN_MOTION_DOT":6.1e-7,"MEAN_MOTION_DDOT":0},{"OBJECT_NAME":"ONEWEB-0374","OBJECT_ID":"2021-090X","EPOCH":"2025-11-12T02:33:58.813344","MEAN_MOTION":13.14502736,"ECCENTRICITY":0.00014783,"INCLINATION":87.8992,"RA_OF_ASC_NODE":332.9461,"ARG_OF_PERICENTER":109.2446,"MEAN_ANOMALY":250.8844,"EPHEMERIS_TYPE":0,"CLASSIFICATION_TYPE":"U","NORAD_CAT_ID":49300,"ELEMENT_SET_NO":999,"REV_AT_EPOCH":19904,"BSTAR":0.00039885971,"MEAN_MOTION_DOT":1.61e-6,"MEAN_MOTION_DDOT":0},{"OBJECT_NAME":"ONEWEB-0375","OBJECT_ID":"2021-090Y","EPOCH":"2025-11-12T06:48:57.396096","MEAN_MOTION":13.20771517,"ECCENTRICITY":0.00012562,"INCLINATION":87.9177,"RA_OF_ASC_NODE":317.6947,"ARG_OF_PERICENTER":91.5199,"MEAN_ANOMALY":268.6078,"EPHEMERIS_TYPE":0,"CLASSIFICATION_TYPE":"U","NORAD_CAT_ID":49301,"ELEMENT_SET_NO":999,"REV_AT_EPOCH":20189,"BSTAR":0.00027771422,"MEAN_MOTION_DOT":1.26e-6,"MEAN_MOTION_DDOT":0},{"OBJECT_NAME":"ONEWEB-0376","OBJECT_ID":"2021-090Z","EPOCH":"2025-11-12T02:59:43.566720","MEAN_MOTION":13.19725673,"ECCENTRICITY":0.00020445,"INCLINATION":87.923,"RA_OF_ASC_NODE":348.1421,"ARG_OF_PERICENTER":98.2378,"MEAN_ANOMALY":261.8987,"EPHEMERIS_TYPE":0,"CLASSIFICATION_TYPE":"U","NORAD_CAT_ID":49302,"ELEMENT_SET_NO":999,"REV_AT_EPOCH":19782,"BSTAR":0.00027171703,"MEAN_MOTION_DOT":1.22e-6,"MEAN_MOTION_DDOT":0},{"OBJECT_NAME":"ONEWEB-0377","OBJECT_ID":"2021-090AA","EPOCH":"2025-11-12T06:28:42.203424","MEAN_MOTION":13.20771294,"ECCENTRICITY":0.00017669,"INCLINATION":87.9184,"RA_OF_ASC_NODE":317.6963,"ARG_OF_PERICENTER":83.7998,"MEAN_ANOMALY":276.3337,"EPHEMERIS_TYPE":0,"CLASSIFICATION_TYPE":"U","NORAD_CAT_ID":49303,"ELEMENT_SET_NO":999,"REV_AT_EPOCH":20188,"BSTAR":0.00016815334,"MEAN_MOTION_DOT":8.1e-7,"MEAN_MOTION_DDOT":0},{"OBJECT_NAME":"ONEWEB-0378","OBJECT_ID":"2021-090AB","EPOCH":"2025-11-12T07:00:31.134528","MEAN_MOTION":13.20768576,"ECCENTRICITY":0.00018751,"INCLINATION":87.9182,"RA_OF_ASC_NODE":317.7067,"ARG_OF_PERICENTER":94.1924,"MEAN_ANOMALY":265.9423,"EPHEMERIS_TYPE":0,"CLASSIFICATION_TYPE":"U","NORAD_CAT_ID":49304,"ELEMENT_SET_NO":999,"REV_AT_EPOCH":20115,"BSTAR":0.0026798685,"MEAN_MOTION_DOT":1.103e-5,"MEAN_MOTION_DDOT":0},{"OBJECT_NAME":"ONEWEB-0379","OBJECT_ID":"2021-090AC","EPOCH":"2025-11-12T02:27:07.908768","MEAN_MOTION":13.14503145,"ECCENTRICITY":0.00017515,"INCLINATION":87.8992,"RA_OF_ASC_NODE":332.9554,"ARG_OF_PERICENTER":96.411,"MEAN_ANOMALY":263.7219,"EPHEMERIS_TYPE":0,"CLASSIFICATION_TYPE":"U","NORAD_CAT_ID":49305,"ELEMENT_SET_NO":999,"REV_AT_EPOCH":19904,"BSTAR":0.00048619724,"MEAN_MOTION_DOT":1.93e-6,"MEAN_MOTION_DDOT":0},{"OBJECT_NAME":"ONEWEB-0380","OBJECT_ID":"2021-090AD","EPOCH":"2025-11-12T02:55:13.448352","MEAN_MOTION":13.1969375,"ECCENTRICITY":0.00016416,"INCLINATION":87.9226,"RA_OF_ASC_NODE":348.166,"ARG_OF_PERICENTER":87.6799,"MEAN_ANOMALY":272.4522,"EPHEMERIS_TYPE":0,"CLASSIFICATION_TYPE":"U","NORAD_CAT_ID":49306,"ELEMENT_SET_NO":999,"REV_AT_EPOCH":19779,"BSTAR":-0.010206979,"MEAN_MOTION_DOT":-4.07e-5,"MEAN_MOTION_DDOT":0}]
